{
    "links": {
        "self": "http://www.neowsapp.com/rest/v1/neo/3397567?api_key=iIulBulltgU6a56xZRHN4H3l9WmuAYTsLGpBGhQ2"
    },
    "id": "3397567",
    "neo_reference_id": "3397567",
    "name": "(2007 XN3)",
    "designation": "2007 XN3",
    "nasa_jpl_url": "http://ssd.jpl.nasa.gov/sbdb.cgi?sstr=3397567",
    "absolute_magnitude_h": 20.6,
    "estimated_diameter": {
        "kilometers": {
            "estimated_diameter_min": 0.2016299194,
            "estimated_diameter_max": 0.4508582062
        },
        "meters": {
            "estimated_diameter_min": 201.6299194428,
            "estimated_diameter_max": 450.8582061718
        },
        "miles": {
            "estimated_diameter_min": 0.1252869847,
            "estimated_diameter_max": 0.2801502144
        },
        "feet": {
            "estimated_diameter_min": 661.5155049046,
            "estimated_diameter_max": 1479.1936371367
        }
    },
    "is_potentially_hazardous_asteroid": false,
    "close_approach_data": [
        {
            "close_approach_date": "2007-11-14",
            "close_approach_date_full": "2007-Nov-14 17:55",
            "epoch_date_close_approach": 1195062900000,
            "relative_velocity": {
                "kilometers_per_second": "12.8787086852",
                "kilometers_per_hour": "46363.3512667585",
                "miles_per_hour": "28808.3834579478"
            },
            "miss_distance": {
                "astronomical": "0.2448638638",
                "lunar": "95.2520430182",
                "kilometers": "36631112.464450106",
                "miles": "22761517.8198032228"
            },
            "orbiting_body": "Earth"
        }
    ],
    "orbital_data": {
        "orbit_id": "12",
        "orbit_determination_date": "2017-04-06 09:04:59",
        "first_observation_date": "2007-12-03",
        "last_observation_date": "2008-01-03",
        "data_arc_in_days": 31,
        "observations_used": 30,
        "orbit_uncertainty": "7",
        "minimum_orbit_intersection": ".137861",
        "jupiter_tisserand_invariant": "3.124",
        "epoch_osculation": "2459000.5",
        "eccentricity": ".5883305116620478",
        "semi_major_axis": "2.623071657055924",
        "inclination": "6.574537527981778",
        "ascending_node_longitude": "270.0242638575039",
        "orbital_period": "1551.721076619031",
        "perihelion_distance": "1.079838566933997",
        "perihelion_argument": "109.6821312008713",
        "aphelion_distance": "4.166304747177851",
        "perihelion_time": "2459040.922852290717",
        "mean_anomaly": "350.6218797669711",
        "mean_motion": ".232000457701062",
        "equinox": "J2000",
        "orbit_class": {
            "orbit_class_type": "AMO",
            "orbit_class_description": "Near-Earth asteroid orbits similar to that of 1221 Amor",
            "orbit_class_range": "1.017 AU < q (perihelion) < 1.3 AU"
        }
    },
    "is_sentry_object": false
}